FLOCK 4G-21             
1 62651U 25009AU  26068.19487675  .00013648  00000+0  49619-3 0  9998
2 62651  97.4032 151.1274 0000465 329.5782  30.5431 15.28381075 63677
STARLINK-33836          
1 63642U 25083J   26068.16536240  .00000267  00000+0  19222-4 0  9992
2 63642  43.0029   8.4357 0000973 172.3981 187.6886 15.27557541 49984
